[{"OBJECT_NAME":"RISING 2","OBJECT_ID":"2014-029D","EPOCH":"2026-03-09T22:49:58.395648","MEAN_MOTION":14.97431818,"ECCENTRICITY":0.00015683,"INCLINATION":97.6622,"RA_OF_ASC_NODE":139.362,"ARG_OF_PERICENTER":264.4485,"MEAN_ANOMALY":95.6558,"EPHEMERIS_TYPE":0,"CLASSIFICATION_TYPE":"U","NORAD_CAT_ID":39769,"ELEMENT_SET_NO":999,"REV_AT_EPOCH":63869,"BSTAR":0.00068568934,"MEAN_MOTION_DOT":7.926e-5,"MEAN_MOTION_DDOT":0},{"OBJECT_NAME":"STARLINK-34483","OBJECT_ID":"2025-126Z","EPOCH":"2026-03-09T22:46:29.340480","MEAN_MOTION":14.98335806,"ECCENTRICITY":0.00030453,"INCLINATION":70.0033,"RA_OF_ASC_NODE":33.6795,"ARG_OF_PERICENTER":257.4364,"MEAN_ANOMALY":102.6455,"EPHEMERIS_TYPE":0,"CLASSIFICATION_TYPE":"U","NORAD_CAT_ID":64367,"ELEMENT_SET_NO":999,"REV_AT_EPOCH":4072,"BSTAR":0.00098677187,"MEAN_MOTION_DOT":0.00011702,"MEAN_MOTION_DDOT":0}]
